IRIDIUM 166             
1 43570U 18061B   25360.89701958 -.00000018  00000+0 -13565-4 0  9992
2 43570  86.3982 128.7914 0002042  91.6919 268.4510 14.34217398388706
IRIDIUM 158             
1 43571U 18061C   25361.07461051  .00000213  00000+0  68867-4 0  9991
2 43571  86.3984 128.7270 0002009 102.2064 257.9356 14.34218969388691
IRIDIUM 165             
1 43572U 18061D   25361.09998174  .00000110  00000+0  32145-4 0  9991
2 43572  86.3987 128.7597 0002052  92.3373 267.8058 14.34217473388729
IRIDIUM 155             
1 43573U 18061E   25360.85262117  .00000007  00000+0 -47378-5 0  9997
2 43573  86.3994 128.7413 0002060  99.0846 261.0583 14.34217696388651
IRIDIUM 154             
1 43574U 18061F   25361.11266700  .00000363  00000+0  12247-3 0  9999
2 43574  86.3988 128.7570 0002046  93.1667 266.9763 14.34217469388741
IRIDIUM 163             
1 43575U 18061G   25361.09363878  .00000132  00000+0  40042-4 0  9990
2 43575  86.3990 128.6860 0001900  98.7354 261.4057 14.34217626388716
IRIDIUM 156             
1 43576U 18061H   25361.06826928  .00000236  00000+0  77279-4 0  9995
2 43576  86.3984 128.7034 0002222  98.0579 262.0869 14.34218324388707
IRIDIUM 164             
1 43577U 18061J   25360.90970584  .00000366  00000+0  12353-3 0  9991
2 43577  86.3986 128.8073 0002066  89.8552 270.2881 14.34222290388723
